{
  "type": "FeatureCollection",
  "features": [
    {
      "type": "Feature",
      "properties": {
        "norad_id": 31051,
        "name": "FENGYUN 1C DEB",
        "group": "fengyun-1c-debris",
        "lat": 26.080890865109897,
        "lon": -166.37509107816476,
        "alt_km": 844.0867010079883,
        "timestamp": "2025-12-04T10:51:50.385689+00:00",
        "meta_object_name": "FENGYUN 1C DEB",
        "meta_object_id": "1999-025BEV",
        "meta_epoch": "2025-11-29T08:36:57.509280",
        "meta_mean_motion": 14.03023318,
        "meta_eccentricity": 0.00528722,
        "meta_inclination": 98.8207,
        "meta_ra_of_asc_node": 4.3303,
        "meta_arg_of_pericenter": 172.6282,
        "meta_mean_anomaly": 187.5674,
        "meta_ephemeris_type": 0,
        "meta_classification_type": "U",
        "meta_norad_cat_id": 31051,
        "meta_element_set_no": 999,
        "meta_rev_at_epoch": 63631,
        "meta_bstar": 0.00023865273,
        "meta_mean_motion_dot": 3.33e-06,
        "meta_mean_motion_ddot": 0,
        "tle_line1": "1 31051U 99025BEV 25333.35899895  .00000333  00000+0  23865-3 0  9992",
        "tle_line2": "2 31051  98.8207   4.3303 0052872 172.6282 187.5674 14.03023318636313"
      },
      "geometry": {
        "type": "Point",
        "coordinates": [
          -166.37509107816476,
          26.080890865109897
        ]
      }
    },
    {
      "type": "Feature",
      "properties": {
        "norad_id": 31053,
        "name": "FENGYUN 1C DEB",
        "group": "fengyun-1c-debris",
        "lat": 61.93464832915036,
        "lon": -61.540580942136735,
        "alt_km": 744.9146547757955,
        "timestamp": "2025-12-04T10:51:50.385699+00:00",
        "meta_object_name": "FENGYUN 1C DEB",
        "meta_object_id": "1999-025BEX",
        "meta_epoch": "2025-12-03T13:22:09.208992",
        "meta_mean_motion": 13.75799689,
        "meta_eccentricity": 0.03096045,
        "meta_inclination": 98.7944,
        "meta_ra_of_asc_node": 100.7528,
        "meta_arg_of_pericenter": 119.501,
        "meta_mean_anomaly": 243.7399,
        "meta_ephemeris_type": 0,
        "meta_classification_type": "U",
        "meta_norad_cat_id": 31053,
        "meta_element_set_no": 999,
        "meta_rev_at_epoch": 93350,
        "meta_bstar": 0.003066599,
        "meta_mean_motion_dot": 4.178e-05,
        "meta_mean_motion_ddot": 0,
        "tle_line1": "1 31053U 99025BEX 25337.55705103  .00004178  00000+0  30666-2 0  9995",
        "tle_line2": "2 31053  98.7944 100.7528 0309604 119.5010 243.7399 13.75799689933508"
      },
      "geometry": {
        "type": "Point",
        "coordinates": [
          -61.540580942136735,
          61.93464832915036
        ]
      }
    },
    {
      "type": "Feature",
      "properties": {
        "norad_id": 31054,
        "name": "FENGYUN 1C DEB",
        "group": "fengyun-1c-debris",
        "lat": -74.18616517265637,
        "lon": 139.05240017794742,
        "alt_km": 862.4059887140857,
        "timestamp": "2025-12-04T10:51:50.385709+00:00",
        "meta_object_name": "FENGYUN 1C DEB",
        "meta_object_id": "1999-025BEY",
        "meta_epoch": "2025-12-03T19:12:09.872064",
        "meta_mean_motion": 14.1216148,
        "meta_eccentricity": 0.00104061,
        "meta_inclination": 98.6907,
        "meta_ra_of_asc_node": 351.1051,
        "meta_arg_of_pericenter": 143.9107,
        "meta_mean_anomaly": 37.1149,
        "meta_ephemeris_type": 0,
        "meta_classification_type": "U",
        "meta_norad_cat_id": 31054,
        "meta_element_set_no": 999,
        "meta_rev_at_epoch": 96637,
        "meta_bstar": 0.00024826457,
        "meta_mean_motion_dot": 4.13e-06,
        "meta_mean_motion_ddot": 0,
        "tle_line1": "1 31054U 99025BEY 25337.80011426  .00000413  00000+0  24826-3 0  9992",
        "tle_line2": "2 31054  98.6907 351.1051 0010406 143.9107  37.1149 14.12161480966370"
      },
      "geometry": {
        "type": "Point",
        "coordinates": [
          139.05240017794742,
          -74.18616517265637
        ]
      }
    },
    {
      "type": "Feature",
      "properties": {
        "norad_id": 31055,
        "name": "FENGYUN 1C DEB",
        "group": "fengyun-1c-debris",
        "lat": 71.00966448256688,
        "lon": -16.745149629246555,
        "alt_km": 863.8599869521222,
        "timestamp": "2025-12-04T10:51:50.385720+00:00",
        "meta_object_name": "FENGYUN 1C DEB",
        "meta_object_id": "1999-025BEZ",
        "meta_epoch": "2025-12-03T13:07:36.252768",
        "meta_mean_motion": 14.10359273,
        "meta_eccentricity": 0.00240093,
        "meta_inclination": 98.7609,
        "meta_ra_of_asc_node": 8.994,
        "meta_arg_of_pericenter": 299.0409,
        "meta_mean_anomaly": 217.8477,
        "meta_ephemeris_type": 0,
        "meta_classification_type": "U",
        "meta_norad_cat_id": 31055,
        "meta_element_set_no": 999,
        "meta_rev_at_epoch": 95992,
        "meta_bstar": 0.00050402979,
        "meta_mean_motion_dot": 8.54e-06,
        "meta_mean_motion_ddot": 0,
        "tle_line1": "1 31055U 99025BEZ 25337.54694737  .00000854  00000+0  50403-3 0  9995",
        "tle_line2": "2 31055  98.7609   8.9940 0024009 299.0409 217.8477 14.10359273959928"
      },
      "geometry": {
        "type": "Point",
        "coordinates": [
          -16.745149629246555,
          71.00966448256688
        ]
      }
    },
    {
      "type": "Feature",
      "properties": {
        "norad_id": 31056,
        "name": "FENGYUN 1C DEB",
        "group": "fengyun-1c-debris",
        "lat": -77.75034737023175,
        "lon": 5.889252773279575,
        "alt_km": 851.3145792667065,
        "timestamp": "2025-12-04T10:51:50.385730+00:00",
        "meta_object_name": "FENGYUN 1C DEB",
        "meta_object_id": "1999-025BFA",
        "meta_epoch": "2025-12-03T10:31:26.895936",
        "meta_mean_motion": 14.14283138,
        "meta_eccentricity": 0.0026031,
        "meta_inclination": 98.6671,
        "meta_ra_of_asc_node": 320.2748,
        "meta_arg_of_pericenter": 9.4767,
        "meta_mean_anomaly": 148.9014,
        "meta_ephemeris_type": 0,
        "meta_classification_type": "U",
        "meta_norad_cat_id": 31056,
        "meta_element_set_no": 999,
        "meta_rev_at_epoch": 96686,
        "meta_bstar": 0.0005329074,
        "meta_mean_motion_dot": 9.78e-06,
        "meta_mean_motion_ddot": 0,
        "tle_line1": "1 31056U 99025BFA 25337.43850574  .00000978  00000+0  53291-3 0  9992",
        "tle_line2": "2 31056  98.6671 320.2748 0026031   9.4767 148.9014 14.14283138966862"
      },
      "geometry": {
        "type": "Point",
        "coordinates": [
          5.889252773279575,
          -77.75034737023175
        ]
      }
    },
    {
      "type": "Feature",
      "properties": {
        "norad_id": 31057,
        "name": "FENGYUN 1C DEB",
        "group": "fengyun-1c-debris",
        "lat": 30.676384526445794,
        "lon": 11.075159070054891,
        "alt_km": 667.2484502930038,
        "timestamp": "2025-12-04T10:51:50.385739+00:00",
        "meta_object_name": "FENGYUN 1C DEB",
        "meta_object_id": "1999-025BFB",
        "meta_epoch": "2025-11-15T08:50:16.083744",
        "meta_mean_motion": 14.78766925,
        "meta_eccentricity": 0.01394535,
        "meta_inclination": 99.2623,
        "meta_ra_of_asc_node": 354.6749,
        "meta_arg_of_pericenter": 337.6801,
        "meta_mean_anomaly": 21.8374,
        "meta_ephemeris_type": 0,
        "meta_classification_type": "U",
        "meta_norad_cat_id": 31057,
        "meta_element_set_no": 999,
        "meta_rev_at_epoch": 61548,
        "meta_bstar": 0.0011048389,
        "meta_mean_motion_dot": 9.496e-05,
        "meta_mean_motion_ddot": 0,
        "tle_line1": "1 31057U 99025BFB 25319.36824171  .00009496  00000+0  11048-2 0  9996",
        "tle_line2": "2 31057  99.2623 354.6749 0139453 337.6801  21.8374 14.78766925615484"
      },
      "geometry": {
        "type": "Point",
        "coordinates": [
          11.075159070054891,
          30.676384526445794
        ]
      }
    },
    {
      "type": "Feature",
      "properties": {
        "norad_id": 31058,
        "name": "FENGYUN 1C DEB",
        "group": "fengyun-1c-debris",
        "lat": -68.7199704681698,
        "lon": -48.13483955923275,
        "alt_km": 710.4191947556219,
        "timestamp": "2025-12-04T10:51:50.385749+00:00",
        "meta_object_name": "FENGYUN 1C DEB",
        "meta_object_id": "1999-025BFC",
        "meta_epoch": "2025-11-30T14:27:22.580352",
        "meta_mean_motion": 14.76018692,
        "meta_eccentricity": 0.0094738,
        "meta_inclination": 99.5638,
        "meta_ra_of_asc_node": 281.6638,
        "meta_arg_of_pericenter": 143.0864,
        "meta_mean_anomaly": 217.691,
        "meta_ephemeris_type": 0,
        "meta_classification_type": "U",
        "meta_norad_cat_id": 31058,
        "meta_element_set_no": 999,
        "meta_rev_at_epoch": 99370,
        "meta_bstar": 0.0011184,
        "meta_mean_motion_dot": 8.226e-05,
        "meta_mean_motion_ddot": 0,
        "tle_line1": "1 31058U 99025BFC 25334.60234468  .00008226  00000+0  11184-2 0  9996",
        "tle_line2": "2 31058  99.5638 281.6638 0094738 143.0864 217.6910 14.76018692993708"
      },
      "geometry": {
        "type": "Point",
        "coordinates": [
          -48.13483955923275,
          -68.7199704681698
        ]
      }
    }
  ]
}